GLOBALSTAR M068         
1 32266U 07048D   24211.48030190 -.00000107  00000+0 -16361-4 0  9993
2 32266  51.9866 205.9538 0000906 143.9381  22.7281 12.62794932776784
GLOBALSTAR M079         
1 37188U 10054A   24211.49619331 -.00000106  00000+0 -99913-5 0  9997
2 37188  52.0049  42.1084 0000669  67.1242 327.5391 12.62261921635704
GLOBALSTAR M074         
1 37189U 10054B   24211.31524685 -.00000099  00000+0  26996-4 0  9996
2 37189  52.0027  42.0324 0000862  80.6336  90.9476 12.62270762636288
GLOBALSTAR M076         
1 37190U 10054C   24211.54547836 -.00000080  00000+0  13388-3 0  9996
2 37190  52.0038  41.4741 0001013  57.1498 320.7077 12.62254303636032
GLOBALSTAR M077         
1 37191U 10054D   24211.54706090 -.00000096  00000+0  44020-4 0  9991
2 37191  52.0094 358.2319 0000870  98.7953 346.7775 12.62261548636405
GLOBALSTAR M075         
1 37192U 10054E   24211.63972400 -.00000098  00000+0  34991-4 0  9990
2 37192  51.9949  83.6237 0000665  63.3689 323.3375 12.62262208635272
GLOBALSTAR M073         
1 37193U 10054F   24211.48512890 -.00000099  00000+0  28591-4 0  9997
2 37193  52.0085 357.6680 0000831  87.5645 315.3525 12.62267327637083
GLOBALSTAR M083         
1 37739U 11033A   24211.57058625 -.00000085  00000+0  10699-3 0  9996
2 37739  51.9873 306.5804 0000491 136.4420 236.5685 12.62262860606118
GLOBALSTAR M088         
1 37740U 11033B   24211.49963722 -.00000077  00000+0  14775-3 0  9992
2 37740  51.9703 212.5571 0000109 237.7547 292.9823 12.62265727601648
GLOBALSTAR M091         
1 37741U 11033C   24211.16177321 -.00000082  00000+0  12326-3 0  9995
2 37741  51.9978 176.5649 0000168 286.6048  86.4742 12.62265070602392
GLOBALSTAR M085         
1 37742U 11033D   24211.49969119 -.00000087  00000+0  94242-4 0  9999
2 37742  51.9866 126.8587 0000316  29.3871 141.4156 12.62263840602944
GLOBALSTAR M081         
1 37743U 11033E   24211.52768782 -.00000101  00000+0  16197-4 0  9997
2 37743  51.9954 129.3622 0000511   9.4499 168.0598 12.62267184603090
GLOBALSTAR M089         
1 37744U 11033F   24211.61211590 -.00000093  00000+0  59198-4 0  9996
2 37744  51.9931  83.3962 0001031  54.3585 325.4953 12.62266493603956
GLOBALSTAR M084         
1 38040U 11080A   24211.54437394 -.00000082  00000+0  12408-3 0  9992
2 38040  52.0022 310.7184 0000856 101.3746 271.7347 12.62264822581924
GLOBALSTAR M080         
1 38041U 11080B   24211.59719559 -.00000086  00000+0  97938-4 0  9990
2 38041  52.0078 312.0509 0000805  82.8296 290.6702 12.62263228582058
GLOBALSTAR M082         
1 38042U 11080C   24211.56011473 -.00000080  00000+0  13231-3 0  9995
2 38042  52.0064 267.5768 0000782 172.6225 332.2343 12.62264448582755
GLOBALSTAR M092         
1 38043U 11080D   24211.50838782 -.00000078  00000+0  14531-3 0  9991
2 38043  52.0107 358.0903 0000932  99.3536 290.5379 12.62264363581411
GLOBALSTAR M090         
1 38044U 11080E   24211.59080118 -.00000073  00000+0  16995-3 0  9994
2 38044  51.9872 261.7079 0000485 165.8819 358.1114 12.62265485582874
GLOBALSTAR M086         
1 38045U 11080F   24211.53417602 -.00000080  00000+0  13118-3 0  9993
2 38045  51.9883 262.4051 0000545 328.4718 178.8552 12.62264906582912
GLOBALSTAR M097         
1 39072U 13005A   24211.37035430 -.00000093  00000+0  60540-4 0  9996
2 39072  52.0028 177.1231 0000233 325.7225  34.3627 12.62269164530042
GLOBALSTAR M093         
1 39073U 13005B   24211.58097017 -.00000085  00000+0  10572-3 0  9999
2 39073  51.9794 170.2977 0000350 318.7815  41.3024 12.62276335530024
GLOBALSTAR M094         
1 39074U 13005C   24211.34346084 -.00000102  00000+0  10433-4 0  9992
2 39074  51.9961  85.0810 0000522  43.7452 316.3456 12.62266257531604
GLOBALSTAR M096         
1 39075U 13005D   24211.51509920 -.00000089  00000+0  81732-4 0  9996
2 39075  52.0069 132.8215 0000314 358.1599   1.9266 12.62267981530891
GLOBALSTAR M078         
1 39076U 13005E   24211.48874982 -.00000081  00000+0  12671-3 0  9993
2 39076  51.9843 217.8513 0001021 173.6879 186.4000 12.62273529529160
GLOBALSTAR M095         
1 39077U 13005F   24211.51492771 -.00000084  00000+0  10859-3 0  9999
2 39077  51.9770 215.1269 0000601 215.5439 144.5387 12.62262765529028
GLOBALSTAR M087         
1 52888U 22064A   24211.55129803 -.00000102  00000+0  50495-4 0  9998
2 52888  51.9763  60.6589 0010070 109.5594 250.6394 13.37579674103194
